{
    "links": {
        "self": "http://www.neowsapp.com/rest/v1/neo/3114032?api_key=iIulBulltgU6a56xZRHN4H3l9WmuAYTsLGpBGhQ2"
    },
    "id": "3114032",
    "neo_reference_id": "3114032",
    "name": "(2002 CA26)",
    "designation": "2002 CA26",
    "nasa_jpl_url": "http://ssd.jpl.nasa.gov/sbdb.cgi?sstr=3114032",
    "absolute_magnitude_h": 27.3,
    "estimated_diameter": {
        "kilometers": {
            "estimated_diameter_min": 0.0092162655,
            "estimated_diameter_max": 0.0206081961
        },
        "meters": {
            "estimated_diameter_min": 9.216265485,
            "estimated_diameter_max": 20.6081961232
        },
        "miles": {
            "estimated_diameter_min": 0.0057267201,
            "estimated_diameter_max": 0.0128053354
        },
        "feet": {
            "estimated_diameter_min": 30.2370924539,
            "estimated_diameter_max": 67.6121941689
        }
    },
    "is_potentially_hazardous_asteroid": false,
    "close_approach_data": [
        {
            "close_approach_date": "2002-02-05",
            "close_approach_date_full": "2002-Feb-05 11:13",
            "epoch_date_close_approach": 1012907580000,
            "relative_velocity": {
                "kilometers_per_second": "15.2573415008",
                "kilometers_per_hour": "54926.4294028534",
                "miles_per_hour": "34129.147203123"
            },
            "miss_distance": {
                "astronomical": "0.0065171104",
                "lunar": "2.5351559456",
                "kilometers": "974945.834394848",
                "miles": "605803.2500229824"
            },
            "orbiting_body": "Earth"
        },
        {
            "close_approach_date": "2002-02-05",
            "close_approach_date_full": "2002-Feb-05 11:39",
            "epoch_date_close_approach": 1012909140000,
            "relative_velocity": {
                "kilometers_per_second": "16.2723748451",
                "kilometers_per_hour": "58580.5494424702",
                "miles_per_hour": "36399.6752910726"
            },
            "miss_distance": {
                "astronomical": "0.0088730816",
                "lunar": "3.4516287424",
                "kilometers": "1327394.107696192",
                "miles": "824804.4518317696"
            },
            "orbiting_body": "Moon"
        }
    ],
    "orbital_data": {
        "orbit_id": "8",
        "orbit_determination_date": "2017-04-06 09:15:27",
        "first_observation_date": "2002-02-08",
        "last_observation_date": "2002-02-12",
        "data_arc_in_days": 4,
        "observations_used": 14,
        "orbit_uncertainty": "9",
        "minimum_orbit_intersection": ".00253219",
        "jupiter_tisserand_invariant": "3.199",
        "epoch_osculation": "2452315.5",
        "eccentricity": ".6640814425987692",
        "semi_major_axis": "2.37823555051104",
        "inclination": ".5026208072131769",
        "ascending_node_longitude": "118.8770010370279",
        "orbital_period": "1339.617237049047",
        "perihelion_distance": ".7988934552879903",
        "perihelion_argument": "318.6334363912532",
        "aphelion_distance": "3.957577645734089",
        "perihelion_time": "2452272.773011214275",
        "mean_anomaly": "11.48217232315131",
        "mean_motion": ".2687334785218349",
        "equinox": "J2000",
        "orbit_class": {
            "orbit_class_type": "APO",
            "orbit_class_description": "Near-Earth asteroid orbits which cross the Earth’s orbit similar to that of 1862 Apollo",
            "orbit_class_range": "a (semi-major axis) > 1.0 AU; q (perihelion) < 1.017 AU"
        }
    },
    "is_sentry_object": false
}